NORAD_CAT_ID,OBJECT_NAME,OBJECT_TYPE,EPOCH,MEAN_MOTION,ECCENTRICITY,INCLINATION,RA_OF_ASC_NODE,ARG_OF_PERICENTER,MEAN_ANOMALY,BSTAR,MEAN_MOTION_DOT,MEAN_MOTION_DDOT,TLE_LINE0,TLE_LINE1,TLE_LINE2,SEMIMAJOR_AXIS,PERIOD,APOGEE,PERIGEE,DECAYED
55746.0,STARLINK-5579,PAYLOAD,2024-03-31 18:49:31,14.98340075,0.0002965,70.0003,229.3006,268.9728,91.1091,6.6045e-05,6.95e-06,0.0,0 STARLINK-5579,1 55746U 23028F   24091.78438725  .00000695  00000-0  66045-4 0  9997,2 55746  70.0003 229.3006 0002965 268.9728  91.1091 14.98340075 60003,6950.162,96.106,574.087,569.966,0.0
55746.0,STARLINK-5579,PAYLOAD,2024-04-01 12:27:00,14.98320026,0.0002831,70.0011,227.4489,267.7313,92.3522,1.9088e-05,1.35e-06,0.0,0 STARLINK-5579,1 55746U 23028F   24092.51876123  .00000135  00000-0  19088-4 0  9991,2 55746  70.0011 227.4489 0002831 267.7313  92.3522 14.98320026 60113,6950.224,96.108,574.056,570.121,0.0
55746.0,STARLINK-5579,PAYLOAD,2024-04-01 15:39:16,14.98323234,0.0002575,70.0007,227.1123,264.2627,95.8238,1.2962e-05,6.2e-07,0.0,0 STARLINK-5579,1 55746U 23028F   24092.65227997  .00000062  00000-0  12962-4 0  9998,2 55746  70.0007 227.1123 0002575 264.2627  95.8238 14.98323234 60133,6950.214,96.107,573.868,570.289,0.0
55746.0,STARLINK-5579,PAYLOAD,2024-04-02 12:29:01,14.98330676,0.0002889,70.0012,224.9248,270.7019,89.3809,1.7398e-05,1.15e-06,0.0,0 STARLINK-5579,1 55746U 23028F   24093.52015638  .00000115  00000-0  17398-4 0  9999,2 55746  70.0012 224.9248 0002889 270.7019  89.3809 14.98330676 60261,6950.191,96.107,574.064,570.048,0.0
55746.0,STARLINK-5579,PAYLOAD,2024-04-02 18:53:33,14.98336518,0.0002893,70.0008,224.2515,270.3043,89.7784,4.5802e-06,-3.8e-07,0.0,0 STARLINK-5579,1 55746U 23028F   24093.78719247 -.00000038  00000-0  45802-5 0  9991,2 55746  70.0008 224.2515 0002893 270.3043  89.7784 14.98336518 60306,6950.173,96.107,574.048,570.027,0.0
55746.0,STARLINK-5579,PAYLOAD,2024-04-03 12:31:02,14.98327844,0.0002825,70.0009,222.3996,272.3133,87.7703,0.00011679,1.301e-05,0.0,0 STARLINK-5579,1 55746U 23028F   24094.52155446  .00001301  00000-0  11679-3 0  9995,2 55746  70.0009 222.3996 0002825 272.3133  87.7703 14.98327844 60419,6950.2,96.107,574.028,570.101,0.0
55746.0,STARLINK-5579,PAYLOAD,2024-04-03 18:55:34,14.9833014,0.0002852,70.0009,221.7263,272.5871,87.4961,0.00011147,1.237e-05,0.0,0 STARLINK-5579,1 55746U 23028F   24094.78859337  .00001237  00000-0  11147-3 0  9991,2 55746  70.0009 221.7263 0002852 272.5871  87.4961 14.98330140 60450,6950.192,96.107,574.04,570.075,0.0
55746.0,STARLINK-5579,PAYLOAD,2024-04-04 14:09:11,14.98327979,0.0002762,70.0014,219.7075,265.6838,94.4006,4.7262e-06,-3.7e-07,0.0,0 STARLINK-5579,1 55746U 23028F   24095.58971711 -.00000037  00000-0  47262-5 0  9998,2 55746  70.0014 219.7075 0002762 265.6838  94.4006 14.98327979 60577,6950.199,96.107,573.984,570.144,0.0
55746.0,STARLINK-5579,PAYLOAD,2024-04-04 17:21:27,14.98332802,0.0002651,70.0015,219.3712,264.412,95.6737,-6.9584e-05,-9.23e-06,0.0,0 STARLINK-5579,1 55746U 23028F   24095.72323580 -.00000923  00000-0 -69584-4 0  9994,2 55746  70.0015 219.3712 0002651 264.4120  95.6737 14.98332802 60597,6950.184,96.107,573.892,570.207,0.0
55746.0,STARLINK-5579,PAYLOAD,2024-04-05 01:22:07,14.9833961,0.000288,70.0012,218.5284,269.7344,90.3485,-0.00011113,-1.419e-05,0.0,0 STARLINK-5579,1 55746U 23028F   24096.05703175 -.00001419  00000-0 -11113-3 0  9998,2 55746  70.0012 218.5284 0002880 269.7344  90.3485 14.98339610 60641,6950.163,96.106,574.03,570.027,0.0
55746.0,STARLINK-5579,PAYLOAD,2024-04-05 14:11:11,14.98346134,0.0002871,70.0004,217.1818,265.4422,94.6409,-5.9405e-05,-8.02e-06,0.0,0 STARLINK-5579,1 55746U 23028F   24096.59110458 -.00000802  00000-0 -59405-4 0  9995,2 55746  70.0004 217.1818 0002871 265.4422  94.6409 14.98346134 60721,6950.143,96.106,574.003,570.013,0.0
55746.0,STARLINK-5579,PAYLOAD,2024-04-05 17:23:27,14.98349481,0.0002702,70.0008,216.8455,262.4056,97.6796,-9.1103e-05,-1.18e-05,0.0,0 STARLINK-5579,1 55746U 23028F   24096.72462215 -.00001180  00000-0 -91103-4 0  9992,2 55746  70.0008 216.8455 0002702 262.4056  97.6796 14.98349481 60743,6950.133,96.106,573.876,570.12,0.0
55746.0,STARLINK-5579,PAYLOAD,2024-04-06 01:24:08,14.98333369,0.0003202,70.002,216.0035,278.1065,81.9731,-3.6938e-05,-5.34e-06,0.0,0 STARLINK-5579,1 55746U 23028F   24097.05842999 -.00000534  00000-0 -36938-4 0  9997,2 55746  70.0020 216.0035 0003202 278.1065  81.9731 14.98333369 60791,6950.182,96.107,574.273,569.822,0.0
55746.0,STARLINK-5579,PAYLOAD,2024-04-06 09:24:49,14.98325402,0.0002848,70.0009,215.1614,268.287,91.7963,3.5736e-06,-5e-07,0.0,0 STARLINK-5579,1 55746U 23028F   24097.39223485 -.00000050  00000-0  35736-5 0  9995,2 55746  70.0009 215.1614 0002848 268.2870  91.7963 14.98325402 60841,6950.207,96.107,574.052,570.093,0.0
55746.0,STARLINK-5579,PAYLOAD,2024-04-06 14:13:13,14.98320469,0.0002869,70.0011,214.6558,264.8425,95.2407,0.00013737,1.546e-05,0.0,0 STARLINK-5579,1 55746U 23028F   24097.59251443  .00001546  00000-0  13737-3 0  9997,2 55746  70.0011 214.6558 0002869 264.8425  95.2407 14.98320469 60879,6950.222,96.108,574.081,570.093,0.0
55746.0,STARLINK-5579,PAYLOAD,2024-04-06 17:25:29,14.98317349,0.0002911,70.0007,214.3189,264.8187,95.264,0.00015439,1.749e-05,0.0,0 STARLINK-5579,1 55746U 23028F   24097.72603661  .00001749  00000-0  15439-3 0  9991,2 55746  70.0007 214.3189 0002911 264.8187  95.2640 14.98317349 60898,6950.232,96.108,574.12,570.074,0.0
55746.0,STARLINK-5579,PAYLOAD,2024-04-07 09:26:50,14.98328673,0.0002944,70.0003,212.637,267.7236,92.3586,-6.7628e-05,-9e-06,0.0,0 STARLINK-5579,1 55746U 23028F   24098.39363572 -.00000900  00000-0 -67628-4 0  9997,2 55746  70.0003 212.6370 0002944 267.7236  92.3586 14.98328673 60990,6950.197,96.107,574.108,570.016,0.0
55746.0,STARLINK-5579,PAYLOAD,2024-04-07 14:15:14,14.98330773,0.0003078,70.0001,212.1325,269.4741,90.6065,-7.9337e-05,-1.04e-05,0.0,0 STARLINK-5579,1 55746U 23028F   24098.59391490 -.00001040  00000-0 -79337-4 0  9995,2 55746  70.0001 212.1325 0003078 269.4741  90.6065 14.98330773 61024,6950.191,96.107,574.195,569.916,0.0
55746.0,STARLINK-5579,PAYLOAD,2024-04-07 17:27:30,14.98331126,0.0003071,70.0001,211.7958,269.6091,90.4716,-7.1196e-05,-9.42e-06,0.0,0 STARLINK-5579,1 55746U 23028F   24098.72743451 -.00000942  00000-0 -71196-4 0  9993,2 55746  70.0001 211.7958 0003071 269.6091  90.4716 14.98331126 61040,6950.189,96.107,574.189,569.92,0.0
55746.0,STARLINK-5579,PAYLOAD,2024-04-08 09:28:50,14.98320011,0.000308,70.0002,210.113,267.1167,92.9639,0.00024134,2.787e-05,0.0,0 STARLINK-5579,1 55746U 23028F   24099.39503394  .00002787  00000-0  24134-3 0  9993,2 55746  70.0002 210.1130 0003080 267.1167  92.9639 14.98320011 61146,6950.224,96.108,574.229,569.948,0.0
55746.0,STARLINK-5579,PAYLOAD,2024-04-08 14:17:14,14.98334206,0.0003072,70.0004,209.6084,268.0616,92.0191,8.9649e-05,9.77e-06,0.0,0 STARLINK-5579,1 55746U 23028F   24099.59530888  .00000977  00000-0  89649-4 0  9995,2 55746  70.0004 209.6084 0003072 268.0616  92.0191 14.98334206 61177,6950.18,96.107,574.18,569.91,0.0
55746.0,STARLINK-5579,PAYLOAD,2024-04-09 09:30:51,14.98328461,0.0003014,70.0008,207.5884,269.7276,90.3537,7.638e-05,8.18e-06,0.0,0 STARLINK-5579,1 55746U 23028F   24100.39643244  .00000818  00000-0  76380-4 0  9999,2 55746  70.0008 207.5884 0003014 269.7276  90.3537 14.98328461 61296,6950.198,96.107,574.157,569.968,0.0
55746.0,STARLINK-5579,PAYLOAD,2024-04-10 12:45:08,14.98336388,0.0002813,70.0013,204.7278,269.0398,91.0438,4.9677e-06,-3.4e-07,0.0,0 STARLINK-5579,1 55746U 23028F   24101.53134739 -.00000034  00000-0  49677-5 0  9991,2 55746  70.0013 204.7278 0002813 269.0398  91.0438 14.98336388 61466,6950.173,96.107,573.993,570.083,0.0
55746.0,STARLINK-5579,PAYLOAD,2024-04-11 12:47:09,14.98328557,0.000283,70.0011,202.2028,268.8886,91.1949,-2.8326e-05,-4.31e-06,0.0,0 STARLINK-5579,1 55746U 23028F   24102.53275150 -.00000431  00000-0 -28326-4 0  9994,2 55746  70.0011 202.2028 0002830 268.8886  91.1949 14.98328557 61612,6950.197,96.107,574.029,570.095,0.0
55746.0,STARLINK-5579,PAYLOAD,2024-04-11 15:59:25,14.98331687,0.0002732,70.001,201.866,270.5979,89.4867,1.2603e-05,5.7e-07,0.0,0 STARLINK-5579,1 55746U 23028F   24102.66626847  .00000057  00000-0  12603-4 0  9994,2 55746  70.0010 201.8660 0002732 270.5979  89.4867 14.98331687 61631,6950.188,96.107,573.951,570.154,0.0
55746.0,STARLINK-5579,PAYLOAD,2024-04-12 12:49:12,14.9830135,0.0003059,70.0008,199.678,271.5631,88.5178,-0.0003848,-4.678e-05,0.0,0 STARLINK-5579,1 55746U 23028F   24103.53416849 -.00004678  00000-0 -38480-3 0  9995,2 55746  70.0008 199.6780 0003059 271.5631  88.5178 14.98301350 61767,6950.281,96.109,574.273,570.02,0.0
55746.0,STARLINK-5579,PAYLOAD,2024-04-12 14:25:20,14.98302742,0.0002891,70.001,199.5099,269.9583,90.1245,-0.00037252,-4.532e-05,0.0,0 STARLINK-5579,1 55746U 23028F   24103.60092810 -.00004532  00000-0 -37252-3 0  9996,2 55746  70.0010 199.5099 0002891 269.9583  90.1245 14.98302742 61773,6950.277,96.109,574.152,570.133,0.0
55746.0,STARLINK-5579,PAYLOAD,2024-04-13 04:50:32,14.98306382,0.0003615,69.9997,197.9942,278.334,81.7409,-0.00022161,-2.735e-05,0.0,0 STARLINK-5579,1 55746U 23028F   24104.20176970 -.00002735  00000-0 -22161-3 0  9999,2 55746  69.9997 197.9942 0003615 278.3340  81.7409 14.98306382 61865,6950.266,96.109,574.643,569.618,0.0
55746.0,STARLINK-5579,PAYLOAD,2024-04-13 12:51:13,14.98311791,0.0003342,70.0005,197.153,275.486,84.5918,-0.00013573,-1.711e-05,0.0,0 STARLINK-5579,1 55746U 23028F   24104.53556806 -.00001711  00000-0 -13573-3 0  9995,2 55746  70.0005 197.1530 0003342 275.4860  84.5918 14.98311791 61917,6950.249,96.108,574.437,569.791,0.0
55746.0,STARLINK-5579,PAYLOAD,2024-04-13 14:27:20,14.98315842,0.00032,70.0006,196.9849,272.4604,87.6189,-8.8562e-05,-1.149e-05,0.0,0 STARLINK-5579,1 55746U 23028F   24104.60232444 -.00001149  00000-0 -88562-4 0  9998,2 55746  70.0006 196.9849 0003200 272.4604  87.6189 14.98315842 61920,6950.237,96.108,574.326,569.878,0.0
